{"spkid": "54017195", "covariance": {"epoch": "2459047.5", "labels": ["e", "q", "tp", "node", "peri", "i"], "data": [["1.430281631652322E-14", "-4.121691604449412E-14", "-5.056645721133834E-12", "3.451752849774361E-12", "-6.351595708079106E-12", "-3.030970703133352E-13"], ["-4.121691604449412E-14", "1.23421375015809E-13", "1.508479996406405E-11", "-1.181095298442843E-11", "2.048500108316986E-11", "8.403399692978803E-13"], ["-5.056645721133834E-12", "1.508479996406405E-11", "2.36242538653767E-9", "-1.895853885185334E-9", "3.400945824337869E-9", "1.078724428869865E-10"], ["3.451752849774361E-12", "-1.181095298442843E-11", "-1.895853885185334E-9", "1.641705432746027E-7", "-1.631229871738278E-7", "8.231685965046414E-9"], ["-6.351595708079106E-12", "2.048500108316986E-11", "3.400945824337869E-9", "-1.631229871738278E-7", "1.632033343925171E-7", "-8.038985511306901E-9"], ["-3.030970703133352E-13", "8.403399692978803E-13", "1.078724428869865E-10", "8.231685965046414E-9", "-8.038985511306901E-9", "4.919128578901748E-10"]], "elements": [{"label": "e", "name": "e", "sigma": 1.19594382462234e-07, "units": null, "title": "eccentricity", "value": ".7175108827472747"}, {"sigma": 3.51313784266728e-07, "name": "q", "units": "au", "value": ".8614812736702886", "title": "perihelion distance", "label": "q"}, {"label": "tp", "units": "TDB", "value": "2459061.092789557382", "title": "time of perihelion passage", "sigma": 4.86047876915193e-05, "name": "tp"}, {"name": "om", "sigma": 0.00040517964321348, "title": "longitude of the ascending node", "value": "199.1042037808398", "units": "deg", "label": "node"}, {"sigma": 0.000403984324439101, "name": "w", "title": "argument of perihelion", "value": "151.9239527747769", "units": "deg", "label": "peri"}, {"units": "deg", "title": "inclination", "value": "9.331330502675122", "sigma": 2.21791085909731e-05, "name": "i", "label": "i"}]}, "elements": [{"label": "e", "name": "e", "sigma": "1.1894E-7", "units": null, "value": ".716885780502192", "title": "eccentricity"}, {"name": "a", "sigma": "2.4903E-7", "title": "semi-major axis", "value": "3.053051870359091", "units": "au", "label": "a"}, {"label": "q", "units": "au", "value": ".864362397363037", "title": "perihelion distance", "name": "q", "sigma": "3.4987E-7"}, {"units": "deg", "value": "9.332335439275038", "title": "inclination; angle with respect to x-y ecliptic plane", "sigma": "2.2233E-5", "name": "i", "label": "i"}, {"value": "199.0312624452661", "title": "longitude of the ascending node", "units": "deg", "sigma": ".00040467", "name": "om", "label": "node"}, {"label": "peri", "value": "152.0446809307511", "title": "argument of perihelion", "units": "deg", "sigma": ".00040352", "name": "w"}, {"label": "M", "units": "deg", "value": "35.4659861388129", "title": "mean anomaly", "sigma": "4.8896E-5", "name": "ma"}, {"label": "tp", "name": "tp", "sigma": ".00024165", "value": "2461008.540663374037", "title": "time of perihelion passage", "units": "TDB"}, {"label": "period", "name": "per", "sigma": ".0002384", "units": "d", "value": "1948.496819314993", "title": "sidereal orbital period"}, {"label": "n", "value": ".1847578073679178", "title": "mean motion", "units": "deg/d", "name": "n", "sigma": "2.2606E-8"}, {"label": "Q", "name": "ad", "sigma": "4.2756E-7", "units": "au", "title": "aphelion distance", "value": "5.241741343355145"}], "epoch": "2461200.5"}